[{"OBJECT_NAME":"STARLINK-4451","OBJECT_ID":"2022-099AD","EPOCH":"2026-03-09T21:19:47.475552","MEAN_MOTION":15.01260357,"ECCENTRICITY":0.0002075,"INCLINATION":97.6039,"RA_OF_ASC_NODE":190.4159,"ARG_OF_PERICENTER":231.9168,"MEAN_ANOMALY":128.187,"EPHEMERIS_TYPE":0,"CLASSIFICATION_TYPE":"U","NORAD_CAT_ID":53492,"ELEMENT_SET_NO":999,"REV_AT_EPOCH":19601,"BSTAR":8.9132214e-5,"MEAN_MOTION_DOT":1.087e-5,"MEAN_MOTION_DDOT":0},{"OBJECT_NAME":"COSMOS 2251 DEB","OBJECT_ID":"1993-036SV","EPOCH":"2026-03-09T21:55:42.811680","MEAN_MOTION":15.15006345,"ECCENTRICITY":0.00579573,"INCLINATION":74.0283,"RA_OF_ASC_NODE":1.8812,"ARG_OF_PERICENTER":55.6817,"MEAN_ANOMALY":304.9843,"EPHEMERIS_TYPE":0,"CLASSIFICATION_TYPE":"U","NORAD_CAT_ID":34452,"ELEMENT_SET_NO":999,"REV_AT_EPOCH":91981,"BSTAR":0.0011020825,"MEAN_MOTION_DOT":0.00021495,"MEAN_MOTION_DDOT":0}]
